[{"OBJECT_NAME":"KUIPER-00009","OBJECT_ID":"2025-088B","EPOCH":"2026-03-09T07:26:50.434944","MEAN_MOTION":14.79940498,"ECCENTRICITY":0.00078887,"INCLINATION":51.9012,"RA_OF_ASC_NODE":108.316,"ARG_OF_PERICENTER":95.6671,"MEAN_ANOMALY":264.5191,"EPHEMERIS_TYPE":0,"CLASSIFICATION_TYPE":"U","NORAD_CAT_ID":63725,"ELEMENT_SET_NO":999,"REV_AT_EPOCH":4772,"BSTAR":0.00068172788,"MEAN_MOTION_DOT":4.981e-5,"MEAN_MOTION_DDOT":0},{"OBJECT_NAME":"FENGYUN 1C DEB","OBJECT_ID":"1999-025AYH","EPOCH":"2026-03-09T00:19:12.154368","MEAN_MOTION":14.31753215,"ECCENTRICITY":0.02159097,"INCLINATION":98.7039,"RA_OF_ASC_NODE":141.8835,"ARG_OF_PERICENTER":230.4259,"MEAN_ANOMALY":255.0428,"EPHEMERIS_TYPE":0,"CLASSIFICATION_TYPE":"U","NORAD_CAT_ID":30895,"ELEMENT_SET_NO":999,"REV_AT_EPOCH":99027,"BSTAR":0.00041921099,"MEAN_MOTION_DOT":1.394e-5,"MEAN_MOTION_DDOT":0}]
